OBJECT_NAME,OBJECT_ID,EPOCH,MEAN_MOTION,ECCENTRICITY,INCLINATION,RA_OF_ASC_NODE,ARG_OF_PERICENTER,MEAN_ANOMALY,EPHEMERIS_TYPE,CLASSIFICATION_TYPE,NORAD_CAT_ID,ELEMENT_SET_NO,REV_AT_EPOCH,BSTAR,MEAN_MOTION_DOT,MEAN_MOTION_DDOT
SIRION PATHFINDER-2,2018-099B,2026-06-30T14:14:06.851040,15.14662292,.0007208,97.4245,230.3322,247.6548,112.3921,0,U,43759,999,41465,.22624E-3,.4121E-4,0
CORVUS BC4,2018-099K,2026-06-30T08:28:46.437600,15.12595052,.00069517,97.4056,223.9482,324.3515,35.7251,0,U,43767,999,41439,.21773691E-3,.3739E-4,0
M2 PATHFINDER,2020-037E,2026-06-30T11:31:01.686432,15.04732911,.00127307,97.8140,12.8603,107.3668,252.8951,0,U,45727,999,32749,.22134261E-3,.3059E-4,0
NETSAT-4,2020-068U,2026-06-30T11:23:41.329824,15.44297823,.00032864,97.8596,190.7866,263.1937,96.8936,0,U,46504,999,31782,.35583116E-3,.16301E-3,0
NETSAT-3,2020-068V,2026-06-30T19:34:10.943616,15.43145367,.0002895,97.8647,189.3544,290.6104,69.4832,0,U,46505,999,31778,.47457E-3,.20954E-3,0
NETSAT-1,2020-068W,2026-06-30T05:45:47.969856,15.34932311,.00033486,97.8739,182.9092,346.8099,13.3055,0,U,46506,999,31730,.3185871E-3,.1071E-3,0
NETSAT-2,2020-068X,2026-06-30T11:54:12.095712,15.46562129,.00015211,97.8606,190.7536,324.3175,35.7971,0,U,46507,999,31779,.4671994E-3,.23173E-3,0
GREENCUBE (IO-117),2022-080E,2026-06-30T17:23:31.202016,6.42583253,.0008959,70.1437,293.5372,286.6703,73.2973,0,U,53109,999,9293,0,-.3E-7,0
SITRO-AIS 5 (KATYS),2023-091L,2026-06-30T19:23:21.816960,15.29764511,.0012102,97.5056,245.8387,60.8454,299.3995,0,U,57176,999,16642,.48332E-3,.13897E-3,0
SITRO-AIS 6 (CHIRKIN),2023-091AC,2026-06-30T19:38:35.611008,15.26192256,.0012567,97.5063,244.8957,64.0099,296.2432,0,U,57192,999,16636,.44012E-3,.1134E-3,0
SITRO-AIS 8 (ANOKHIN),2023-091AD,2026-06-30T19:13:16.159008,15.32500389,.0010973,97.5053,247.4761,57.0521,303.1774,0,U,57193,999,16653,.54235E-3,.1699E-3,0
SITRO-AIS 7 (FARTUSHNIY),2023-091AE,2026-06-30T19:47:10.472064,15.25873965,.0012489,97.5060,244.7196,65.1220,295.1315,0,U,57194,999,16635,.42344E-3,.10801E-3,0
SITRO-AIS 10 (BURDAEV),2023-091AK,2026-06-30T18:35:23.790624,15.39114153,.0006317,97.5080,252.6453,37.0200,323.1479,0,U,57199,999,16685,.53472E-3,.20683E-3,0
SITRO-AIS 9 (SHCHUKIN),2023-091AM,2026-06-30T19:19:43.210272,15.38618364,.0006588,97.5078,252.3960,36.8389,323.3307,0,U,57201,999,16684,.60028E-3,.22864E-3,0
SITRO-AIS 12 (SMIRENNIY),2023-091AQ,2026-06-30T19:02:28.951296,15.38909697,.0006078,97.5090,252.8595,31.4356,328.7251,0,U,57204,999,16686,.57245E-3,.22004E-3,0
SITRO-AIS 11 (SHEFFER),2023-091AU,2026-06-30T19:16:20.502048,15.39344066,.0005964,97.5090,253.1246,31.0576,329.1021,0,U,57208,999,16688,.59169E-3,.23074E-3,0
SITRO-AIS 25,2024-039R,2026-06-30T20:13:31.185120,14.93575534,.0142386,95.3901,244.4764,280.3955,78.1249,0,U,59066,999,12676,.21684E-3,.2755E-4,0
SITRO-AIS 26,2024-039S,2026-06-30T20:18:11.460672,14.93369932,.0142709,95.3902,244.3734,280.9920,77.5280,0,U,59067,999,12675,.21978E-3,.2779E-4,0
SITRO-AIS 27,2024-039T,2026-06-30T21:06:16.456896,14.93793739,.0141765,95.3908,244.6748,279.4594,79.0632,0,U,59068,999,12678,.16965E-3,.2156E-4,0
SITRO-AIS 28,2024-039U,2026-06-30T20:33:21.467808,14.93826559,.0141581,95.3907,244.7068,279.3607,79.1635,0,U,59071,999,12678,.23559E-3,.301E-4,0
GRBBETA,2024-128C,2026-06-30T10:14:53.757312,15.06717012,.0038958,61.9879,169.8110,137.4915,222.9206,0,U,60237,999,10826,.22612792E-3,.3214E-4,0
OOV-CUBE (TUBSAT-30),2024-128F,2026-06-30T13:30:16.620768,15.02821133,.0042979,61.9924,178.9308,136.7327,223.7153,0,U,60240,999,10812,.14864E-3,.1824E-4,0
ROBUSTA-3A (MEDITERRANEE),2024-128J,2026-06-30T11:54:19.638432,15.11802352,.00398326,61.9847,161.1742,130.7455,229.7110,0,U,60243,999,10843,.33314363E-3,.5601E-4,0
LASARSAT,2024-247Q,2026-06-30T11:22:48.461664,15.47133217,.00067092,44.9721,187.5081,55.5360,304.6163,0,U,62391,999,8537,.62049819E-3,.31981E-3,0
CROCUBE,2024-247T,2026-06-30T10:55:41.519424,15.49133067,.00065888,44.9690,184.7243,61.2381,298.9172,0,U,62394,999,8540,.62612125E-3,.34641E-3,0
FORESAIL-1 PRIME,2025-276DS,2026-06-30T10:29:33.076032,15.18816213,.00037806,97.4202,254.4659,75.9591,284.2063,0,U,66778,999,3241,.2115921E-3,.4337E-4,0
KNACKSAT-2,1998-067XZ,2026-06-30T08:24:10.954656,15.61112165,.00084933,51.6260,228.2118,273.6004,86.4018,0,U,67683,999,2233,.45592226E-3,.38944E-3,0
