SIRION PATHFINDER-2     
1 43759U 18099B   26181.59313485  .00004121  00000+0  22624-3 0  9997
2 43759  97.4245 230.3322 0007208 247.6548 112.3921 15.14662292414656
CORVUS BC4              
1 43767U 18099K   26181.35331525  .00003739  00000+0  21774-3 0  9994
2 43767  97.4056 223.9482 0006951 324.3515  35.7251 15.12595052414393
M2 PATHFINDER           
1 45727U 20037E   26181.47988063  .00003059  00000+0  22134-3 0  9991
2 45727  97.8140  12.8603 0012730 107.3668 252.8951 15.04732911327490
NETSAT-4                
1 46504U 20068U   26181.47478391  .00016301  00000+0  35583-3 0  9993
2 46504  97.8596 190.7866 0003286 263.1937  96.8936 15.44297823317829
NETSAT-3                
1 46505U 20068V   26181.81540444  .00020954  00000+0  47457-3 0  9993
2 46505  97.8647 189.3544 0002895 290.6104  69.4832 15.43145367317780
NETSAT-1                
1 46506U 20068W   26181.24013854  .00010710  00000+0  31859-3 0  9999
2 46506  97.8739 182.9092 0003348 346.8099  13.3055 15.34932311317307
NETSAT-2                
1 46507U 20068X   26181.49597333  .00023173  00000+0  46720-3 0  9996
2 46507  97.8606 190.7536 0001521 324.3175  35.7971 15.46562129317795
GREENCUBE (IO-117)      
1 53109U 22080E   26181.72466669 -.00000003  00000+0  00000+0 0  9996
2 53109  70.1437 293.5372 0008959 286.6703  73.2973  6.42583253 92938
SITRO-AIS 5 (KATYS)     
1 57176U 23091L   26181.80789140  .00013897  00000+0  48332-3 0  9996
2 57176  97.5056 245.8387 0012102  60.8454 299.3995 15.29764511166426
SITRO-AIS 6 (CHIRKIN)   
1 57192U 23091AC  26181.81846772  .00011340  00000+0  44012-3 0  9992
2 57192  97.5063 244.8957 0012567  64.0099 296.2432 15.26192256166363
SITRO-AIS 8 (ANOKHIN)   
1 57193U 23091AD  26181.80088147  .00016990  00000+0  54235-3 0  9990
2 57193  97.5053 247.4761 0010973  57.0521 303.1774 15.32500389166539
SITRO-AIS 7 (FARTUSHNIY)
1 57194U 23091AE  26181.82442676  .00010801  00000+0  42344-3 0  9997
2 57194  97.5060 244.7196 0012489  65.1220 295.1315 15.25873965166356
SITRO-AIS 10 (BURDAEV)  
1 57199U 23091AK  26181.77458091  .00020683  00000+0  53472-3 0  9997
2 57199  97.5080 252.6453 0006317  37.0200 323.1479 15.39114153166856
SITRO-AIS 9 (SHCHUKIN)  
1 57201U 23091AM  26181.80536123  .00022864  00000+0  60028-3 0  9996
2 57201  97.5078 252.3960 0006588  36.8389 323.3307 15.38618364166845
SITRO-AIS 12 (SMIRENNIY)
1 57204U 23091AQ  26181.79339064  .00022004  00000+0  57245-3 0  9995
2 57204  97.5090 252.8595 0006078  31.4356 328.7251 15.38909697166861
SITRO-AIS 11 (SHEFFER)  
1 57208U 23091AU  26181.80301507  .00023074  00000+0  59169-3 0  9997
2 57208  97.5090 253.1246 0005964  31.0576 329.1021 15.39344066166881
SITRO-AIS 25            
1 59066U 24039R   26181.84272205  .00002755  00000+0  21684-3 0  9994
2 59066  95.3901 244.4764 0142386 280.3955  78.1249 14.93575534126761
SITRO-AIS 26            
1 59067U 24039S   26181.84596598  .00002779  00000+0  21978-3 0  9991
2 59067  95.3902 244.3734 0142709 280.9920  77.5280 14.93369932126756
SITRO-AIS 27            
1 59068U 24039T   26181.87935714  .00002156  00000+0  16965-3 0  9991
2 59068  95.3908 244.6748 0141765 279.4594  79.0632 14.93793739126789
SITRO-AIS 28            
1 59071U 24039U   26181.85649847  .00003010  00000+0  23559-3 0  9999
2 59071  95.3907 244.7068 0141581 279.3607  79.1635 14.93826559126789
GRBBETA                 
1 60237U 24128C   26181.42701108  .00003214  00000+0  22613-3 0  9992
2 60237  61.9879 169.8110 0038958 137.4915 222.9206 15.06717012108269
OOV-CUBE (TUBSAT-30)    
1 60240U 24128F   26181.56269237  .00001824  00000+0  14864-3 0  9997
2 60240  61.9924 178.9308 0042979 136.7327 223.7153 15.02821133108122
ROBUSTA-3A (MEDITERRAN*)
1 60243U 24128J   26181.49606063  .00005601  00000+0  33314-3 0  9992
2 60243  61.9847 161.1742 0039832 130.7455 229.7110 15.11802352108430
LASARSAT                
1 62391U 24247Q   26181.47417201  .00031981  00000+0  62050-3 0  9991
2 62391  44.9721 187.5081 0006709  55.5360 304.6163 15.47133217 85376
CROCUBE                 
1 62394U 24247T   26181.45534166  .00034641  00000+0  62612-3 0  9992
2 62394  44.9690 184.7243 0006588  61.2381 298.9172 15.49133067 85409
FORESAIL-1 PRIME        
1 66778U 25276DS  26181.43718838  .00004337  00000+0  21159-3 0  9993
2 66778  97.4202 254.4659 0003780  75.9591 284.2063 15.18816213 32410
KNACKSAT-2              
1 67683U 98067XZ  26181.35012679  .00038944  00000+0  45592-3 0  9996
2 67683  51.6260 228.2118 0008493 273.6004  86.4018 15.61112165 22338
